{
  "type": "FeatureCollection",
  "features": [
    {
      "id": "uar:spatial/DPN5OPCK",
      "type": "Feature",
      "geometry": null,
      "properties": {
        "type": "Storey",
        "floorLevel": "1",
        "containedInPlace": "uar:spatial/3DCB4Q56"
      }
    },
    {
      "id": "uar:spatial/J3HJ2IOO",
      "type": "Feature",
      "geometry": {
        "type": "Point",
        "coordinates": [
          139.54374019,
          35.65859536
        ]
      },
      "properties": {
        "type": "BuildingEntrance",
        "bearing": 290.0,
        "containedInPlace": "uar:spatial/DPN5OPCK"
      }
    },
    {
      "id": "uar:spatial/TYNWBTWL",
      "type": "Feature",
      "geometry": {
        "type": "Point",
        "coordinates": [
          139.54338403,
          35.65851795
        ]
      },
      "properties": {
        "type": "BuildingEntrance",
        "bearing": 285.0,
        "containedInPlace": "uar:spatial/DPN5OPCK"
      }
    },
    {
      "id": "uar:spatial/CCCJCN7H",
      "type": "Feature",
      "geometry": {
        "type": "Point",
        "coordinates": [
          139.54339984,
          35.65872459
        ]
      },
      "properties": {
        "type": "BuildingEntrance",
        "bearing": 190.0,
        "containedInPlace": "uar:spatial/DPN5OPCK"
      }
    },
    {
      "id": "uar:spatial/ZHETZP7C",
      "type": "Feature",
      "properties": {
        "containedInPlace": "uar:spatial/DPN5OPCK",
        "type": "Room",
        "name": {
          "ja": "UECコミュニケーションミュージアム別館"
        },
        "usage": "museum",
        "isPartOf": [
          "uar:spatial/NSE5X2WH"
        ]
      },
      "geometry": {
        "type": "Polygon",
        "coordinates": [
          [
            [
              139.54326056,
              35.65863954
            ],
            [
              139.54320614,
              35.65845536
            ],
            [
              139.54335678,
              35.65842571
            ],
            [
              139.54341057,
              35.65860777
            ],
            [
              139.54326056,
              35.65863954
            ]
          ]
        ]
      }
    }
  ]
}
